ONEWEB-0033             
1 45142U 20008M   25154.39601015  .00000444  00000+0  12368-2 0  9991
2 45142  87.8812 111.8212 0002188  86.9301 273.2076 13.10375716258606
ONEWEB-0035             
1 45143U 20008N   25154.80850426  .00000147  00000+0  38414-3 0  9991
2 45143  87.8813 111.7393 0002149  85.9798 274.1574 13.10370855259279
ONEWEB-0036             
1 45144U 20008P   25154.87490378  .00000578  00000+0  16196-2 0  9995
2 45144  87.8810 111.6686 0002050  77.1590 282.9766 13.10372006259680
ONEWEB-0038             
1 45145U 20008Q   25154.57557387  .00000025  00000+0  34972-4 0  9998
2 45145  87.8838  96.5195 0001104  81.6368 278.4885 13.10940573260706
ONEWEB-0039             
1 45146U 20008R   25155.16290337  .00000440  00000+0  12245-2 0  9992
2 45146  87.8816 111.6338 0001510  74.2582 285.8712 13.10376670259438
ONEWEB-0040             
1 45147U 20008S   25154.39268705  .00000276  00000+0  75543-3 0  9999
2 45147  87.8823 111.8116 0001973  81.7880 278.3471 13.10376676258254
ONEWEB-0043             
1 45149U 20008U   25154.39434699  .00000358  00000+0  98941-3 0  9996
2 45149  87.8817 111.7989 0001854  70.0821 290.0506 13.10376593258573
ONEWEB-0044             
1 45150U 20008V   25154.57528680  .00000301  00000+0  82571-3 0  9992
2 45150  87.8810 111.7552 0001927  76.9751 283.1591 13.10371252258891
